FLOCK 4H-16             
1 66719U 25276BF  26201.20493736  .00003697  00000+0  17388-3 0  9990
2 66719  97.4218 274.2639 0003111 230.2562 129.8400 15.20185861 35437
FLOCK 4H-18             
1 66721U 25276BH  26201.73790282  .00004174  00000+0  19621-3 0  9990
2 66721  97.4161 274.5973 0002253 258.3224 101.7759 15.20133553 35519
FLOCK 4H-19             
1 66722U 25276BJ  26201.73284454  .00003301  00000+0  15060-3 0  9994
2 66722  97.4162 275.0647 0002762 139.9155 220.2285 15.21318673 34831
FLOCK 4H-20             
1 66723U 25276BK  26201.80016283  .00003823  00000+0  17307-3 0  9991
2 66723  97.4198 275.2413 0003387 155.8767 204.2628 15.21485547 34809
FLOCK 4H-21             
1 66724U 25276BL  26201.76726627  .00003819  00000+0  17498-3 0  9993
2 66724  97.4162 275.0266 0003236 154.5525 205.5870 15.21068446 34792
FLOCK 4H-22             
1 66725U 25276BM  26201.87947689  .00005209  00000+0  24100-3 0  9992
2 66725  97.4155 274.8430 0001115 245.0013 115.1107 15.20569421 35548
FLOCK 4H-23             
1 66726U 25276BN  26201.73732003  .00004021  00000+0  18926-3 0  9990
2 66726  97.4224 274.7889 0003448 217.7585 142.3409 15.20111143 35512
FLOCK 4H-24             
1 66727U 25276BP  26201.78752706  .00003826  00000+0  17967-3 0  9994
2 66727  97.4217 274.8678 0002662 236.1366 123.9616 15.20221916 35527
FLOCK 4H-25             
1 66728U 25276BQ  26201.91762127  .00004303  00000+0  19721-3 0  9999
2 66728  97.4176 275.1663 0002089 122.5667 237.5771 15.20989546 34843
FLOCK 4H-26             
1 66729U 25276BR  26201.75614653  .00004066  00000+0  19224-3 0  9996
2 66729  97.4173 274.6132 0003541 237.3748 122.7146 15.19943420 35510
FLOCK 4H-27             
1 66730U 25276BS  26201.75151403  .00004078  00000+0  18807-3 0  9996
2 66730  97.4152 274.8527 0001824 125.1110 235.0297 15.20809343 35532
FLOCK 4H-29             
1 66732U 25276BU  26201.93264646  .00004593  00000+0  21587-3 0  9993
2 66732  97.4153 274.7687 0001855 245.6205 114.4837 15.20087231 35543
FLOCK 4H-30             
1 66733U 25276BV  26201.20003551  .00003964  00000+0  18613-3 0  9997
2 66733  97.4214 274.2607 0002934 238.6345 121.4603 15.20204346 35430
FLOCK 4H-31             
1 66734U 25276BW  26201.94591414  .00004758  00000+0  22415-3 0  9996
2 66734  97.4151 274.7479 0002277 242.9681 117.1322 15.19983170 35543
FLOCK 4H-32             
1 66735U 25276BX  26201.86754086  .00004424  00000+0  20795-3 0  9993
2 66735  97.4208 274.8724 0003353 233.5253 126.5674 15.20102659 35538
FLOCK 4H-33             
1 66736U 25276BY  26201.95307316  .00004643  00000+0  21108-3 0  9996
2 66736  97.4205 275.3591 0003187 148.8554 211.2871 15.21230918 35577
