{"fetched_at":"2026-07-21T07:06:30.167Z","source":"https://celestrak.org/NORAD/elements/gp.php?GROUP=planet&FORMAT=JSON","constellation":"superdove","records":[{"OBJECT_NAME":"FLOCK 4H-16","OBJECT_ID":"2025-276BF","EPOCH":"2026-07-20T04:55:06.587904","CLASSIFICATION_TYPE":"U","MEAN_MOTION":15.20185861,"ECCENTRICITY":0.00031114,"INCLINATION":97.4218,"RA_OF_ASC_NODE":274.2639,"ARG_OF_PERICENTER":230.2562,"MEAN_ANOMALY":129.84,"EPHEMERIS_TYPE":0,"NORAD_CAT_ID":66719,"ELEMENT_SET_NO":999,"REV_AT_EPOCH":3543,"BSTAR":0.00017388037,"MEAN_MOTION_DOT":0.00003697,"MEAN_MOTION_DDOT":0},{"OBJECT_NAME":"FLOCK 4H-18","OBJECT_ID":"2025-276BH","EPOCH":"2026-07-20T17:42:34.803648","CLASSIFICATION_TYPE":"U","MEAN_MOTION":15.20133553,"ECCENTRICITY":0.00022536,"INCLINATION":97.4161,"RA_OF_ASC_NODE":274.5973,"ARG_OF_PERICENTER":258.3224,"MEAN_ANOMALY":101.7759,"EPHEMERIS_TYPE":0,"NORAD_CAT_ID":66721,"ELEMENT_SET_NO":999,"REV_AT_EPOCH":3551,"BSTAR":0.00019621154,"MEAN_MOTION_DOT":0.00004174,"MEAN_MOTION_DDOT":0},{"OBJECT_NAME":"FLOCK 4H-19","OBJECT_ID":"2025-276BJ","EPOCH":"2026-07-20T17:35:17.768256","CLASSIFICATION_TYPE":"U","MEAN_MOTION":15.21318673,"ECCENTRICITY":0.00027623,"INCLINATION":97.4162,"RA_OF_ASC_NODE":275.0647,"ARG_OF_PERICENTER":139.9155,"MEAN_ANOMALY":220.2285,"EPHEMERIS_TYPE":0,"NORAD_CAT_ID":66722,"ELEMENT_SET_NO":999,"REV_AT_EPOCH":3483,"BSTAR":0.00015059929,"MEAN_MOTION_DOT":0.00003301,"MEAN_MOTION_DDOT":0},{"OBJECT_NAME":"FLOCK 4H-20","OBJECT_ID":"2025-276BK","EPOCH":"2026-07-20T19:12:14.068512","CLASSIFICATION_TYPE":"U","MEAN_MOTION":15.21485547,"ECCENTRICITY":0.00033872,"INCLINATION":97.4198,"RA_OF_ASC_NODE":275.2413,"ARG_OF_PERICENTER":155.8767,"MEAN_ANOMALY":204.2628,"EPHEMERIS_TYPE":0,"NORAD_CAT_ID":66723,"ELEMENT_SET_NO":999,"REV_AT_EPOCH":3480,"BSTAR":0.00017307077,"MEAN_MOTION_DOT":0.00003823,"MEAN_MOTION_DDOT":0},{"OBJECT_NAME":"FLOCK 4H-21","OBJECT_ID":"2025-276BL","EPOCH":"2026-07-20T18:24:51.805728","CLASSIFICATION_TYPE":"U","MEAN_MOTION":15.21068446,"ECCENTRICITY":0.00032362,"INCLINATION":97.4162,"RA_OF_ASC_NODE":275.0266,"ARG_OF_PERICENTER":154.5525,"MEAN_ANOMALY":205.587,"EPHEMERIS_TYPE":0,"NORAD_CAT_ID":66724,"ELEMENT_SET_NO":999,"REV_AT_EPOCH":3479,"BSTAR":0.00017498147,"MEAN_MOTION_DOT":0.00003819,"MEAN_MOTION_DDOT":0},{"OBJECT_NAME":"FLOCK 4H-22","OBJECT_ID":"2025-276BM","EPOCH":"2026-07-20T21:06:26.803296","CLASSIFICATION_TYPE":"U","MEAN_MOTION":15.20569421,"ECCENTRICITY":0.00011158,"INCLINATION":97.4155,"RA_OF_ASC_NODE":274.843,"ARG_OF_PERICENTER":245.0013,"MEAN_ANOMALY":115.1107,"EPHEMERIS_TYPE":0,"NORAD_CAT_ID":66725,"ELEMENT_SET_NO":999,"REV_AT_EPOCH":3554,"BSTAR":0.00024099926,"MEAN_MOTION_DOT":0.00005209,"MEAN_MOTION_DDOT":0},{"OBJECT_NAME":"FLOCK 4H-23","OBJECT_ID":"2025-276BN","EPOCH":"2026-07-20T17:41:44.450592","CLASSIFICATION_TYPE":"U","MEAN_MOTION":15.20111143,"ECCENTRICITY":0.00034483,"INCLINATION":97.4224,"RA_OF_ASC_NODE":274.7889,"ARG_OF_PERICENTER":217.7585,"MEAN_ANOMALY":142.3409,"EPHEMERIS_TYPE":0,"NORAD_CAT_ID":66726,"ELEMENT_SET_NO":999,"REV_AT_EPOCH":3551,"BSTAR":0.00018926459,"MEAN_MOTION_DOT":0.00004021,"MEAN_MOTION_DDOT":0},{"OBJECT_NAME":"FLOCK 4H-24","OBJECT_ID":"2025-276BP","EPOCH":"2026-07-20T18:54:02.337984","CLASSIFICATION_TYPE":"U","MEAN_MOTION":15.20221916,"ECCENTRICITY":0.00026621,"INCLINATION":97.4217,"RA_OF_ASC_NODE":274.8678,"ARG_OF_PERICENTER":236.1366,"MEAN_ANOMALY":123.9616,"EPHEMERIS_TYPE":0,"NORAD_CAT_ID":66727,"ELEMENT_SET_NO":999,"REV_AT_EPOCH":3552,"BSTAR":0.00017966777,"MEAN_MOTION_DOT":0.00003826,"MEAN_MOTION_DDOT":0},{"OBJECT_NAME":"FLOCK 4H-25","OBJECT_ID":"2025-276BQ","EPOCH":"2026-07-20T22:01:22.477728","CLASSIFICATION_TYPE":"U","MEAN_MOTION":15.20989546,"ECCENTRICITY":0.00020899,"INCLINATION":97.4176,"RA_OF_ASC_NODE":275.1663,"ARG_OF_PERICENTER":122.5667,"MEAN_ANOMALY":237.5771,"EPHEMERIS_TYPE":0,"NORAD_CAT_ID":66728,"ELEMENT_SET_NO":999,"REV_AT_EPOCH":3484,"BSTAR":0.00019720807,"MEAN_MOTION_DOT":0.00004303,"MEAN_MOTION_DDOT":0},{"OBJECT_NAME":"FLOCK 4H-26","OBJECT_ID":"2025-276BR","EPOCH":"2026-07-20T18:08:51.060192","CLASSIFICATION_TYPE":"U","MEAN_MOTION":15.1994342,"ECCENTRICITY":0.00035412,"INCLINATION":97.4173,"RA_OF_ASC_NODE":274.6132,"ARG_OF_PERICENTER":237.3748,"MEAN_ANOMALY":122.7146,"EPHEMERIS_TYPE":0,"NORAD_CAT_ID":66729,"ELEMENT_SET_NO":999,"REV_AT_EPOCH":3551,"BSTAR":0.00019223505,"MEAN_MOTION_DOT":0.00004066,"MEAN_MOTION_DDOT":0},{"OBJECT_NAME":"FLOCK 4H-27","OBJECT_ID":"2025-276BS","EPOCH":"2026-07-20T18:02:10.812192","CLASSIFICATION_TYPE":"U","MEAN_MOTION":15.20809343,"ECCENTRICITY":0.0001824,"INCLINATION":97.4152,"RA_OF_ASC_NODE":274.8527,"ARG_OF_PERICENTER":125.111,"MEAN_ANOMALY":235.0297,"EPHEMERIS_TYPE":0,"NORAD_CAT_ID":66730,"ELEMENT_SET_NO":999,"REV_AT_EPOCH":3553,"BSTAR":0.00018807186,"MEAN_MOTION_DOT":0.00004078,"MEAN_MOTION_DDOT":0},{"OBJECT_NAME":"FLOCK 4H-29","OBJECT_ID":"2025-276BU","EPOCH":"2026-07-20T22:23:00.654144","CLASSIFICATION_TYPE":"U","MEAN_MOTION":15.20087231,"ECCENTRICITY":0.00018558,"INCLINATION":97.4153,"RA_OF_ASC_NODE":274.7687,"ARG_OF_PERICENTER":245.6205,"MEAN_ANOMALY":114.4837,"EPHEMERIS_TYPE":0,"NORAD_CAT_ID":66732,"ELEMENT_SET_NO":999,"REV_AT_EPOCH":3554,"BSTAR":0.00021586564,"MEAN_MOTION_DOT":0.00004593,"MEAN_MOTION_DDOT":0},{"OBJECT_NAME":"FLOCK 4H-30","OBJECT_ID":"2025-276BV","EPOCH":"2026-07-20T04:48:03.068064","CLASSIFICATION_TYPE":"U","MEAN_MOTION":15.20204346,"ECCENTRICITY":0.00029344,"INCLINATION":97.4214,"RA_OF_ASC_NODE":274.2607,"ARG_OF_PERICENTER":238.6345,"MEAN_ANOMALY":121.4603,"EPHEMERIS_TYPE":0,"NORAD_CAT_ID":66733,"ELEMENT_SET_NO":999,"REV_AT_EPOCH":3543,"BSTAR":0.00018613339,"MEAN_MOTION_DOT":0.00003964,"MEAN_MOTION_DDOT":0},{"OBJECT_NAME":"FLOCK 4H-31","OBJECT_ID":"2025-276BW","EPOCH":"2026-07-20T22:42:06.981696","CLASSIFICATION_TYPE":"U","MEAN_MOTION":15.1998317,"ECCENTRICITY":0.00022771,"INCLINATION":97.4151,"RA_OF_ASC_NODE":274.7479,"ARG_OF_PERICENTER":242.9681,"MEAN_ANOMALY":117.1322,"EPHEMERIS_TYPE":0,"NORAD_CAT_ID":66734,"ELEMENT_SET_NO":999,"REV_AT_EPOCH":3554,"BSTAR":0.00022414787,"MEAN_MOTION_DOT":0.00004758,"MEAN_MOTION_DDOT":0},{"OBJECT_NAME":"FLOCK 4H-32","OBJECT_ID":"2025-276BX","EPOCH":"2026-07-20T20:49:15.530304","CLASSIFICATION_TYPE":"U","MEAN_MOTION":15.20102659,"ECCENTRICITY":0.00033532,"INCLINATION":97.4208,"RA_OF_ASC_NODE":274.8724,"ARG_OF_PERICENTER":233.5253,"MEAN_ANOMALY":126.5674,"EPHEMERIS_TYPE":0,"NORAD_CAT_ID":66735,"ELEMENT_SET_NO":999,"REV_AT_EPOCH":3553,"BSTAR":0.00020794584,"MEAN_MOTION_DOT":0.00004424,"MEAN_MOTION_DDOT":0},{"OBJECT_NAME":"FLOCK 4H-33","OBJECT_ID":"2025-276BY","EPOCH":"2026-07-20T22:52:25.521024","CLASSIFICATION_TYPE":"U","MEAN_MOTION":15.21230918,"ECCENTRICITY":0.00031874,"INCLINATION":97.4205,"RA_OF_ASC_NODE":275.3591,"ARG_OF_PERICENTER":148.8554,"MEAN_ANOMALY":211.2871,"EPHEMERIS_TYPE":0,"NORAD_CAT_ID":66736,"ELEMENT_SET_NO":999,"REV_AT_EPOCH":3557,"BSTAR":0.00021107825,"MEAN_MOTION_DOT":0.00004643,"MEAN_MOTION_DDOT":0}]}
